PROBA-1                 
1 26958U 01049B   23012.15585255  .00004045  00000+0  33853-3 0  9995
2 26958  97.8523 337.3988 0070671   8.7868 351.4572 14.97106128155697
BIRD 2                  
1 26959U 01049C   23011.54770143  .00036921  00000+0  61674-3 0  9990
2 26959  97.7656 123.3998 0005289 347.2745  12.8371 15.51836524179126
CUTE-1 (CO-55)          
1 27844U 03031E   23011.83819493  .00000487  00000+0  23735-3 0  9995
2 27844  98.6794  21.3939 0009248 213.5733 146.4860 14.22582830 13507
CUBESAT XI-IV (CO-57)   
1 27848U 03031J   23011.72645746  .00000391  00000+0  19629-3 0  9996
2 27848  98.6833  21.7529 0008901 229.7446 130.2954 14.22121227 13266
GENESIS 1               
1 29252U 06029A   23011.67232523  .00011763  00000+0  49246-3 0  9999
2 29252  64.5215 106.3326 0044514 232.1448 127.5647 15.23005682910653
FALCONSAT-3             
1 30776U 07006E   23012.10832075  .00690276  21023-3  13230-2 0  9992
2 30776  35.4213 307.2620 0010280 248.0770 111.8884 15.99402204882311
GENESIS 2               
1 31789U 07028A   23011.76943175  .00010849  00000+0  46192-3 0  9990
2 31789  64.4951 149.7421 0059637 283.5354  75.9131 15.21776882857572
APRIZESAT 4             
1 35684U 09041D   23011.90723905  .00001149  00000+0  15699-3 0  9999
2 35684  98.3001  37.6117 0047479  44.0962 316.4019 14.79919703725895
APRIZESAT 3             
1 35686U 09041F   23011.74163063  .00002736  00000+0  28852-3 0  9994
2 35686  98.1004 108.0225 0070518 224.7456 134.8059 14.88395922729583
PROBA-2                 
1 36037U 09059B   23012.04300172  .00000503  00000+0  13165-3 0  9993
2 36037  98.2208 199.7407 0013333 180.9145 179.2029 14.53369305699641
APRIZESAT 5             
1 37792U 11044E   23011.91074341  .00001243  00000+0  18345-3 0  9997
2 37792  98.2973 258.1432 0058613  60.1963 300.5056 14.76053299613893
APRIZESAT 6             
1 37793U 11044F   23011.93606694  .00000998  00000+0  16114-3 0  9990
2 37793  98.3746 235.8060 0047534 114.2620 294.0468 14.73032500612558
PROBA-V                 
1 39159U 13021A   23012.05068362  .00000057  00000+0  43558-4 0  9992
2 39159  98.3358  42.1846 0003964 184.9485 175.1655 14.23070275502997
STPSAT-3                
1 39380U 13064A   23011.55474609  .00100433  00000+0  98017-3 0  9992
2 39380  40.4948 210.7759 0012310 343.8630  16.1800 15.64983482513284
APRIZESAT 7             
1 39416U 13066A   23011.88164680  .00002001  00000+0  23790-3 0  9993
2 39416  97.5992 346.9319 0041300  33.1709 327.2083 14.84879721494960
APRIZESAT 8             
1 39425U 13066K   23011.70884966  .00001487  00000+0  18946-3 0  9994
2 39425  97.6568 338.6489 0052653  78.8255 281.8872 14.81979376493808
BUGSAT-1 (TITA)         
1 40014U 14033E   23011.92761652  .00004640  00000+0  39699-3 0  9997
2 40014  98.1453  24.0253 0032008  68.2017 292.2615 14.97736143467339
SAUDISAT 4              
1 40016U 14033G   23011.53809099  .00001112  00000+0  16637-3 0  9992
2 40016  97.6340 199.9269 0047718 184.5809 175.4971 14.75789871461089
APRIZESAT 9             
1 40018U 14033J   23012.18565211  .00001099  00000+0  18255-3 0  9993
2 40018  97.7311 176.8381 0069382 263.3146  96.0161 14.70500840459459
APRIZESAT 10            
1 40019U 14033K   23012.22031766  .00000810  00000+0  14425-3 0  9997
2 40019  97.7909 167.0238 0082587 310.8956  48.5115 14.67522646458594
TDS 1                   
1 40076U 14037H   23011.56557083  .00005326  00000+0  60525-3 0  9994
2 40076  98.3634 260.4218 0007813 112.6538 247.5503 14.86704636460618
TIANTUO 2               
1 40144U 14053B   23012.08075442  .00010480  00000+0  25815-3 0  9990
2 40144  97.1770  93.0255 0010483 155.9732 323.2650 15.40704108467185
TECHNOSAT               
1 42829U 17042E   23012.04268764  .00003308  00000+0  32659-3 0  9995
2 42829  97.3971 218.8139 0014726  34.4823 325.7350 14.92509520299191
FLYING LAPTOP           
1 42831U 17042G   23011.83685438  .00001887  00000+0  18949-3 0  9991
2 42831  97.3979 218.9626 0014628  34.6544 325.5663 14.92303888299168
HAWK-A                  
1 43765U 18099H   23011.89546767  .00003451  00000+0  29717-3 0  9992
2 43765  97.5943  79.4487 0013561 293.9157  66.0645 14.97934302224338
HAWK-B                  
1 43794U 18099AN  23011.89583790  .00003491  00000+0  30048-3 0  9994
2 43794  97.5944  79.4489 0013602 294.1545  65.8255 14.97937060224320
HAWK-C                  
1 43799U 18099AT  23011.89564689  .00003540  00000+0  30466-3 0  9994
2 43799  97.5941  79.3530 0013530 293.8044  66.1759 14.97931748225071
SALSAT                  
1 46495U 20068K   23011.79786889  .00006352  00000+0  44255-3 0  9991
2 46495  97.7536 318.5534 0014823 293.5622  66.4047 15.05707288125528
